{
    "links": {
        "self": "http://www.neowsapp.com/rest/v1/neo/3801988?api_key=iIulBulltgU6a56xZRHN4H3l9WmuAYTsLGpBGhQ2"
    },
    "id": "3801988",
    "neo_reference_id": "3801988",
    "name": "(2018 FA1)",
    "designation": "2018 FA1",
    "nasa_jpl_url": "http://ssd.jpl.nasa.gov/sbdb.cgi?sstr=3801988",
    "absolute_magnitude_h": 23.1,
    "estimated_diameter": {
        "kilometers": {
            "estimated_diameter_min": 0.063760979,
            "estimated_diameter_max": 0.1425738833
        },
        "meters": {
            "estimated_diameter_min": 63.7609789875,
            "estimated_diameter_max": 142.5738833281
        },
        "miles": {
            "estimated_diameter_min": 0.0396192233,
            "estimated_diameter_max": 0.0885912765
        },
        "feet": {
            "estimated_diameter_min": 209.1895703015,
            "estimated_diameter_max": 467.7620993781
        }
    },
    "is_potentially_hazardous_asteroid": false,
    "close_approach_data": [
        {
            "close_approach_date": "2009-03-22",
            "close_approach_date_full": "2009-Mar-22 20:26",
            "epoch_date_close_approach": 1237753560000,
            "relative_velocity": {
                "kilometers_per_second": "21.3368716106",
                "kilometers_per_hour": "76812.7377980286",
                "miles_per_hour": "47728.4481056695"
            },
            "miss_distance": {
                "astronomical": "0.1647771884",
                "lunar": "64.0983262876",
                "kilometers": "24650316.409228708",
                "miles": "15316996.3581358504"
            },
            "orbiting_body": "Earth"
        },
        {
            "close_approach_date": "2014-09-19",
            "close_approach_date_full": "2014-Sep-19 21:52",
            "epoch_date_close_approach": 1411163520000,
            "relative_velocity": {
                "kilometers_per_second": "17.2446216403",
                "kilometers_per_hour": "62080.6379052096",
                "miles_per_hour": "38574.4941472676"
            },
            "miss_distance": {
                "astronomical": "0.1248073102",
                "lunar": "48.5500436678",
                "kilometers": "18670907.766349274",
                "miles": "11601564.1143330212"
            },
            "orbiting_body": "Earth"
        },
        {
            "close_approach_date": "2018-03-28",
            "close_approach_date_full": "2018-Mar-28 04:46",
            "epoch_date_close_approach": 1522212360000,
            "relative_velocity": {
                "kilometers_per_second": "17.4942259167",
                "kilometers_per_hour": "62979.2133000167",
                "miles_per_hour": "39132.833953002"
            },
            "miss_distance": {
                "astronomical": "0.1067048169",
                "lunar": "41.5081737741",
                "kilometers": "15962813.326980003",
                "miles": "9918832.2590219214"
            },
            "orbiting_body": "Earth"
        },
        {
            "close_approach_date": "2023-09-30",
            "close_approach_date_full": "2023-Sep-30 14:57",
            "epoch_date_close_approach": 1696085820000,
            "relative_velocity": {
                "kilometers_per_second": "20.6278644563",
                "kilometers_per_hour": "74260.3120425475",
                "miles_per_hour": "46142.4700022152"
            },
            "miss_distance": {
                "astronomical": "0.093338543",
                "lunar": "36.308693227",
                "kilometers": "13963247.22170341",
                "miles": "8676359.495430658"
            },
            "orbiting_body": "Earth"
        },
        {
            "close_approach_date": "2027-03-29",
            "close_approach_date_full": "2027-Mar-29 07:08",
            "epoch_date_close_approach": 1806304080000,
            "relative_velocity": {
                "kilometers_per_second": "15.2317580726",
                "kilometers_per_hour": "54834.3290615141",
                "miles_per_hour": "34071.9196326947"
            },
            "miss_distance": {
                "astronomical": "0.280233061",
                "lunar": "109.010660729",
                "kilometers": "41922269.02918007",
                "miles": "26049290.053102166"
            },
            "orbiting_body": "Earth"
        }
    ],
    "orbital_data": {
        "orbit_id": "6",
        "orbit_determination_date": "2018-04-15 06:25:27",
        "first_observation_date": "2018-03-16",
        "last_observation_date": "2018-04-12",
        "data_arc_in_days": 27,
        "observations_used": 55,
        "orbit_uncertainty": "8",
        "minimum_orbit_intersection": ".041014",
        "jupiter_tisserand_invariant": "5.164",
        "epoch_osculation": "2458197.5",
        "eccentricity": ".3657518525349786",
        "semi_major_axis": "1.185278797514411",
        "inclination": "29.4184993406365",
        "ascending_node_longitude": ".3531800977530084",
        "orbital_period": "471.3344682444313",
        "perihelion_distance": ".7517608815530837",
        "perihelion_argument": "281.8760273017917",
        "aphelion_distance": "1.618796713475739",
        "perihelion_time": "2458278.431200456318",
        "mean_anomaly": "298.1856534430979",
        "mean_motion": ".7637888256738017",
        "equinox": "J2000",
        "orbit_class": {
            "orbit_class_type": "APO",
            "orbit_class_description": "Near-Earth asteroid orbits which cross the Earth’s orbit similar to that of 1862 Apollo",
            "orbit_class_range": "a (semi-major axis) > 1.0 AU; q (perihelion) < 1.017 AU"
        }
    },
    "is_sentry_object": false
}